BEESAT-4                
1 41619U 16040W   21283.88096933  .00005215  00000-0  20410-3 0  9997
2 41619  97.2560 336.7027 0008716 285.0380  74.9894 15.26212045282616
CAS-2T & KS-1Q          
1 41847U 16066G   21283.89207012  .00000321  00000-0  59394-4 0  9998
2 41847  98.5885 343.4307 0364149 235.6485 120.9754 14.38249116258476
NAYIF-1 (EO-88)         
1 42017U 17008BX  21283.71346984  .00005518  00000-0  19870-3 0  9995
2 42017  97.3040 349.2313 0007257  67.7084 292.4925 15.28959397258867
ZHUHAI-1 02 (CAS-4B)    
1 42759U 17034B   21283.95345036  .00001105  00000-0  79281-4 0  9991
2 42759  43.0178 266.0156 0007301 174.3043 212.2653 15.10429071238612
ZHUHAI-1 01 (CAS-4A)    
1 42761U 17034D   21283.93730861  .00001223  00000-0  86101-4 0  9996
2 42761  43.0174 265.0742 0007668 176.1064 208.2545 15.10516794238614
MAX VALIER SAT          
1 42778U 17036P   21283.87787649  .00003302  00000-0  13865-3 0  9991
2 42778  97.2426 328.6569 0013250 124.9204 235.3281 15.24058016238865
RADFXSAT (FOX-1B)       
1 43017U 17073E   21283.70051199  .00001869  00000-0  14930-3 0  9995
2 43017  97.6939 183.0571 0252595 284.4051  72.9250 14.79831406210165
FOX-1D (AO-92)          
1 43137U 18004AC  21283.78002791  .00003772  00000-0  15040-3 0  9993
2 43137  97.3970 356.6085 0009341 155.2668 204.9020 15.25771873208247
DIWATA-2B               
1 43678U 18084H   21283.95745296 -.00000120  00000-0 -60689-5 0  9991
2 43678  97.9385  49.9327 0010725  35.9554 324.2383 14.91800856160656
ES'HAIL 2               
1 43700U 18090A   21283.90604914  .00000137  00000-0  00000-0 0  9992
2 43700   0.0012 137.1388 0002137  81.7377 152.8207  1.00270403 10526
FOX-1CLIFF (AO-95)      
1 43770U 18099N   21283.74241502  .00001332  00000-0  12527-3 0  9998
2 43770  97.6544 351.3271 0015279  37.7782 322.4509 14.95467091155684
ITASAT 1                
1 43786U 18099AE  21283.90722013  .00000380  00000-0  39179-4 0  9999
2 43786  97.6564 352.2466 0015741  29.4433 330.7671 14.95742003155742
JY1SAT (JO-97)          
1 43803U 18099AX  21283.91794296  .00000857  00000-0  81297-4 0  9999
2 43803  97.6522 351.9976 0015525  29.1279 331.0805 14.96016062155757
UWE-4                   
1 43880U 18111E   21283.69028641  .00001716  00000-0  15376-3 0  9997
2 43880  97.6769 189.4043 0013930  79.5909 280.6882 14.97027682152326
NEXUS (FO-99)           
1 43937U 19003F   21283.86003337  .00004712  00000-0  18275-3 0  9995
2 43937  97.1650 322.3867 0021598 326.8844  33.1041 15.26371522151864
PSAT2 (NO-104)          
1 44354U 19036R   21283.75102006  .00030667  00000-0  38772-3 0  9998
2 44354  28.5259  76.1491 0310853  89.6409 273.9794 15.17465497126488
BRICSAT2 (NO-103)       
1 44355U 19036S   21283.55876388  .00082485 -47987-5  77330-3 0  9997
2 44355  28.5271  10.8627 0228633 195.6384 163.7058 15.39131854127125
JAISAT-1                
1 44419U 19038F   21283.90647665  .00003715  00000-0  20636-3 0  9998
2 44419  97.6027 248.2897 0019047 274.9106  84.9951 15.14206112125260
DUCHIFAT-3              
1 44854U 19089C   21283.91936335  .00001110  00000-0  94584-4 0  9994
2 44854  36.9665 137.7096 0009263 347.5275  12.5237 14.99682032100441
CAS-6 (TO-108)          
1 44881U 19093C   21283.76082834  .00000165  00000-0  27878-4 0  9999
2 44881  97.9172   1.2934 0013743 279.8101  80.1553 14.81489862 97804
RS-44 & BREEZE-KM R/B   
1 44909U 19096E   21283.78970660  .00000024  00000-0  49301-4 0  9997
2 44909  82.5254  36.1635 0217527 183.1988 176.7737 12.79711188 83576
ORBITAL FACTORY 2 (OF-2)
1 45113U 19071C   21283.93697256  .00008054  00000-0  22988-3 0  9994
2 45113  51.6408 197.1805 0011184 355.7900   4.2988 15.36895610 94924
HUSKYSAT-1 (HO-107)     
1 45119U 19071J   21283.49389315  .00007371  00000-0  21181-3 0  9990
2 45119  51.6410 198.7130 0010609 350.4904   9.5877 15.36827235 94853
BY70-2                  
1 45857U 20042B   21283.79819717  .00002221  00000-0  31934-3 0  9992
2 45857  97.9778 358.3356 0011052 194.3356 165.7532 14.77375331 68577
SALSAT                  
1 46495U 20068K   21283.92939837  .00000087  00000-0  10881-4 0  9997
2 46495  97.7001 220.7830 0018361  44.7943 315.4758 15.03578747 56681
BY70-3                  
1 46839U 20079N   21283.84208645  .00006797  00000-0  20442-3 0  9995
2 46839  97.2310 355.4149 0008092 142.7725 355.2325 15.34672034 51895
RADFXSAT-2 (AO-109)     
1 47311U 21002C   21283.92436288  .00003449  00000-0  15810-3 0  9997
2 47311  60.6854 218.8004 0040391 106.7284 253.8241 15.22126851 40445
UVSQ-SAT                
1 47438U 21006AB  21283.89949452  .00002310  00000-0  13254-3 0  9995
2 47438  97.4749 343.0003 0014024  63.2679 296.9986 15.13457508 39511
DIY-1 (ARDUIQUBE)       
1 47963U 21022AH  21283.65496116  .00005151  00000-0  33827-3 0  9998
2 47963  97.5461 183.9220 0017371 272.7594  87.1646 15.07947301 29250
